#aV2022  1 15  0  0  0.00000000     288 DD+AD WGS84 FIT  NGA
## 2192 518400.00000000   300.00000000 59594 0.0000000000000
+   32     1  2  3  4  5  6  7  8  9 10 11 12 13 14 15 16 17
+         18 19 20 21 22 23 24 25 26 27 28 29 30 31 32  0  0
+          0  0  0  0  0  0  0  0  0  0  0  0  0  0  0  0  0
+          0  0  0  0  0  0  0  0  0  0  0  0  0  0  0  0  0
+          0  0  0  0  0  0  0  0  0  0  0  0  0  0  0  0  0
++         2  2  2  2  2  2  2  2  2  2  2  2  2  2  2  2  2
++         2  2  2  2  2  2  2  2  2  2  2  2  2  2  2  0  0
++         0  0  0  0  0  0  0  0  0  0  0  0  0  0  0  0  0
++         0  0  0  0  0  0  0  0  0  0  0  0  0  0  0  0  0
++         0  0  0  0  0  0  0  0  0  0  0  0  0  0  0  0  0
%c cc cc ccc ccc cccc cccc cccc cccc ccccc ccccc ccccc ccccc
%c cc cc ccc ccc cccc cccc cccc cccc ccccc ccccc ccccc ccccc
%f  0.0000000  0.000000000  0.00000000000  0.000000000000000
%f  0.0000000  0.000000000  0.00000000000  0.000000000000000
%i    0    0    0    0      0      0      0      0         0
%i    0    0    0    0      0      0      0      0         0
/*      NGA, ST. LOUIS,MO.                                  
/*   EPHEMERIS COMPUTED FROM 2 DAYS OF DATA                 
/*   EPOCHA v7 SMOOTHER                                     
/*   G2139 IERS2010 SATIGS SATAPC                           
*  2022  1 15  1 50  0.00000000
P  1  15008.062550     -6.800109  21673.560078    457.092412                    
V  1   8119.923438  26870.921832  -5212.212869     -0.098065                    
P  2 -14743.862323 -19896.817210  -8777.531154   -648.643515                    
V  2  -2091.322779 -12233.016493  29172.739648     -0.009632                    
P  3  20819.444946  -9645.430217  13184.395417    -78.671263                    
V  3  -9820.472085  13942.168778  25608.733096     -0.149605                    
P  4  24915.519388   -480.648127  -9300.363133   -194.905493                    
V  4  10836.062463   5266.815616  28671.551359      0.017680                    
P  5 -15172.607910  -5175.273237 -21361.183317    -67.926447                    
V  5  16704.642189 -20867.872822  -6713.745049     -0.013008                    
P  6  -4926.545323 -25648.114532   4696.295811    171.174339                    
V  6   3714.355466   4976.178295  31608.936072      0.109821                    
P  7   8365.579674 -16765.087499 -18252.521028    301.818994                    
V  7   9203.916887  22432.057779 -16542.309688      0.036437                    
P  8  25962.660259   6210.618858  -1715.056940    -52.189539                    
V  8  -2544.987989   1934.344682 -31529.096262     -0.015523                    
P  9  17483.683546  -9410.993442 -17728.373257   -357.886855                    
V  9  21639.074718   5949.355762  18224.938028      0.011760                    
P 10  -8799.675285  21955.262850  11914.005939   -293.808252                    
V 10 -11692.109133   9669.092473 -27044.704921     -0.096267                    
P 11 -12277.733861 -21723.329446  -9126.178657    -44.337581                    
V 11   -489.312601 -11841.803325  28839.460008     -0.367448                    
P 12 -20969.851971   6176.434813  14728.009255   -155.957178                    
V 12  12453.497865 -14742.199227  23630.796257     -0.056445                    
P 13 -21718.697192 -13437.673151  -7738.055340    245.493897                    
V 13   9769.904530   1100.560080 -29774.804608      0.060393                    
P 14  10145.075680 -21769.193559  11266.368835    -70.743687                    
V 14  11918.571537  -8411.241474 -27035.631589     -0.053501                    
P 15 -26470.118850  -3551.253401  -1674.268378    -91.474403                    
V 15   1935.701860  -3329.812331 -30754.008532      0.028685                    
P 16  12032.571873   9385.487155 -22025.565527   -455.737895                    
V 16 -20024.868454  18528.204427  -2624.332946     -0.054243                    
P 17   3156.541418 -14675.011882  22350.868262    561.559901                    
V 17  26284.908161   7237.670670   1100.542802      0.052682                    
P 18  -7940.800953  17371.076678 -18414.320609    260.653924                    
V 18  -8107.309912 -21986.980306 -17344.062710     -0.073414                    
P 19  -6288.629095 -16151.591464  19917.918158    105.676778                    
V 19  24765.704499   7165.076021  13281.875586      0.049948                    
P 20  -8170.269286 -14799.228327 -20547.099708    517.170639                    
V 20  15060.320000 -21317.864682   9114.672346     -0.001705                    
P 21  17780.428287   9342.029825  18355.920732    156.123563                    
V 21   7278.914196  20504.412893 -17566.433416      0.007967                    
P 22  18493.699217  -1695.354563  19080.728541   -417.313210                    
V 22 -12714.945338  20449.578861  14486.146610      0.088830                    
P 23 -16690.775322  20572.504870    978.882154     11.109431                    
V 23  -2864.207606   -786.575243 -31929.329317     -0.038311                    
P 24 -17291.573109  -4000.138355  19583.309846    277.141383                    
V 24  -8495.547793 -24060.069884 -11824.499913     -0.000527                    
P 25 -19752.471484  16669.114360   5153.724227    271.014184                    
V 25   2326.946961  -7241.555541  30969.968098      0.055550                    
P 26   1785.841503  19071.493542 -18348.249591    174.441668                    
V 26 -16242.757012  16854.821791  16310.121634      0.034025                    
P 27  20619.650066  12529.518370 -11723.893961     68.870321                    
V 27 -14472.363654  -1335.720083 -26944.278666      0.217911                    
P 28   3543.524762 -19891.356043  17882.628181    421.933005                    
V 28  16702.170306 -13688.489052 -18885.515531     -0.079686                    
P 29 -20489.325558   5235.583002 -16148.311824   -467.410027                    
V 29 -19140.076572  -7072.542985  21993.913550     -0.048463                    
P 30   1904.536486 -23596.661222 -11725.820199   -506.784280                    
V 30   7451.968899  13564.471882 -26176.503387     -0.026226                    
P 31   6177.459583  25487.414603   1886.900211   -159.987546                    
V 31  -4007.957698  -1498.592153  31809.175729     -0.017976                    
P 32   2209.818074  15806.027014  21379.338333    -50.683435                    
V 32 -26387.557941  -4937.713262   6229.498091     -0.060821                    
EOF
